[{"OBJECT_NAME":"STARLINK-35856","OBJECT_ID":"2025-293L","EPOCH":"2026-03-09T19:34:59.485728","MEAN_MOTION":14.98330046,"ECCENTRICITY":0.00028552,"INCLINATION":70.0021,"RA_OF_ASC_NODE":94.2635,"ARG_OF_PERICENTER":271.6812,"MEAN_ANOMALY":88.402,"EPHEMERIS_TYPE":0,"CLASSIFICATION_TYPE":"U","NORAD_CAT_ID":67013,"ELEMENT_SET_NO":999,"REV_AT_EPOCH":1490,"BSTAR":0.00042668337,"MEAN_MOTION_DOT":5.002e-5,"MEAN_MOTION_DDOT":0},{"OBJECT_NAME":"COSMOS 2151","OBJECT_ID":"1991-042A","EPOCH":"2026-03-09T21:12:10.736640","MEAN_MOTION":15.00104908,"ECCENTRICITY":0.00139956,"INCLINATION":82.493,"RA_OF_ASC_NODE":83.4892,"ARG_OF_PERICENTER":63.3058,"MEAN_ANOMALY":296.9597,"EPHEMERIS_TYPE":0,"CLASSIFICATION_TYPE":"U","NORAD_CAT_ID":21422,"ELEMENT_SET_NO":999,"REV_AT_EPOCH":86322,"BSTAR":0.00015116122,"MEAN_MOTION_DOT":1.915e-5,"MEAN_MOTION_DDOT":0}]
